[{"OBJECT_NAME":"STARLINK-1482","OBJECT_ID":"2020-038AV","EPOCH":"2026-03-09T14:46:35.385312","MEAN_MOTION":15.30192757,"ECCENTRICITY":0.0001327,"INCLINATION":53.1615,"RA_OF_ASC_NODE":191.3633,"ARG_OF_PERICENTER":89.6348,"MEAN_ANOMALY":270.4805,"EPHEMERIS_TYPE":0,"CLASSIFICATION_TYPE":"U","NORAD_CAT_ID":45773,"ELEMENT_SET_NO":999,"REV_AT_EPOCH":31683,"BSTAR":1.5205e-5,"MEAN_MOTION_DOT":9.1e-7,"MEAN_MOTION_DDOT":0},{"OBJECT_NAME":"TEVEL2-4","OBJECT_ID":"2025-052D","EPOCH":"2026-03-09T16:39:37.129536","MEAN_MOTION":15.30925813,"ECCENTRICITY":0.0004733,"INCLINATION":97.4009,"RA_OF_ASC_NODE":325.1237,"ARG_OF_PERICENTER":95.3468,"MEAN_ANOMALY":264.8313,"EPHEMERIS_TYPE":0,"CLASSIFICATION_TYPE":"U","NORAD_CAT_ID":63213,"ELEMENT_SET_NO":999,"REV_AT_EPOCH":5487,"BSTAR":0.00070362503,"MEAN_MOTION_DOT":0.0002099,"MEAN_MOTION_DDOT":0}]
