STARLINK-1482           
1 45773U 20038AV  26068.61568733  .00000091  00000+0  15205-4 0  9996
2 45773  53.1615 191.3633 0001327  89.6348 270.4805 15.30192757316833
TEVEL2-4                
1 63213U 25052D   26068.69417973  .00020990  00000+0  70363-3 0  9998
2 63213  97.4009 325.1237 0004733  95.3468 264.8313 15.30925813 54879
